[{"OBJECT_NAME":"STARLINK-35729","OBJECT_ID":"2025-280S","EPOCH":"2026-03-09T23:21:34.879968","MEAN_MOTION":14.98329385,"ECCENTRICITY":0.00029279,"INCLINATION":70.0029,"RA_OF_ASC_NODE":333.9285,"ARG_OF_PERICENTER":271.5719,"MEAN_ANOMALY":88.5104,"EPHEMERIS_TYPE":0,"CLASSIFICATION_TYPE":"U","NORAD_CAT_ID":66837,"ELEMENT_SET_NO":999,"REV_AT_EPOCH":1611,"BSTAR":0.0014761065,"MEAN_MOTION_DOT":0.00017564,"MEAN_MOTION_DDOT":0},{"OBJECT_NAME":"SL-8 DEB","OBJECT_ID":"1971-114C","EPOCH":"2026-03-09T10:06:38.914272","MEAN_MOTION":14.97936297,"ECCENTRICITY":0.00069633,"INCLINATION":74.0033,"RA_OF_ASC_NODE":186.861,"ARG_OF_PERICENTER":298.1447,"MEAN_ANOMALY":61.9034,"EPHEMERIS_TYPE":0,"CLASSIFICATION_TYPE":"U","NORAD_CAT_ID":5778,"ELEMENT_SET_NO":999,"REV_AT_EPOCH":88447,"BSTAR":0.0010014796,"MEAN_MOTION_DOT":0.00011794,"MEAN_MOTION_DDOT":0}]
